GPS BIIR-08             
1 27663U 03005A   26061.66100637 -.00000005  00000+0  00000+0 0  9990
2 27663  54.9077 219.1988 0148733  52.7044 129.5810  2.00566327169175
GPS BIIR-11             
1 28190U 04009A   26061.95050060 -.00000010  00000+0  00000+0 0  9993
2 28190  54.9168 279.9786 0110897 169.0266  18.2442  2.00558110160818
GPS BIIR-13             
1 28474U 04045A   26061.09234127 -.00000089  00000+0  00000+0 0  9997
2 28474  55.1960 329.2124 0170883 312.7311  38.2097  2.00573214156275
GPS BIIR-14M            
1 28874U 05038A   26061.34676233 -.00000001  00000+0  00000+0 0  9994
2 28874  54.9646 277.4881 0128856 295.3112 199.7188  2.00573091149694
METEOSAT-9 (MSG-2)      
1 28912U 05049B   26062.09632663  .00000113  00000+0  00000+0 0  9994
2 28912   9.1220  55.1947 0001870 220.2001 325.8556  1.00276507  5931
GPS BIIR-16M            
1 29601U 06052A   26061.71797006 -.00000006  00000+0  00000+0 0  9998
2 29601  54.9578 218.2238 0087895  89.3335 271.6249  2.00551488141271
GPS BIIR-17M            
1 32260U 07047A   26062.02486862  .00000007  00000+0  00000+0 0  9998
2 32260  54.0146  84.4404 0163592  85.9452 275.9877  2.00560768134689
GPS BIIR-18M            
1 32384U 07062A   26062.08783465 -.00000009  00000+0  00000+0 0  9990
2 32384  55.1158 278.4165 0032895 160.6467  12.9294  2.00553422133385
GOES 14                 
1 35491U 09033A   26062.12744012  .00000114  00000+0  00000+0 0  9998
2 35491   1.4156  84.4389 0002190 295.8945  28.9504  1.00123619  5524
GOES 15                 
1 36411U 10008A   26062.09987998  .00000006  00000+0  00000+0 0  9993
2 36411   1.0058  85.1718 0001668  23.7748 151.3712  1.00269225 58575
GSAT0101 (GALILEO-PFM)  
1 37846U 11060A   26053.46432651 -.00000082  00000+0  00000+0 0  9992
2 37846  57.0318 344.8758 0003975 357.0591   2.9533  1.70475478 89166
GSAT0102 (GALILEO-FM2)  
1 37847U 11060B   26060.06318653 -.00000106  00000+0  00000+0 0  9999
2 37847  57.0301 344.6971 0005422 341.2092 154.1953  1.70475778 89286
LUCH 5A                 
1 37951U 11074B   26062.27278109 -.00000059  00000+0  00000+0 0  9993
2 37951   8.4844  75.3629 0004037 243.0845 107.8689  1.00275234 51983
METEOSAT-10 (MSG-3)     
1 38552U 12035B   26061.73080794 -.00000019  00000+0  00000+0 0  9996
2 38552   4.4198  61.4700 0002487 292.1297  70.2445  1.00276905 49793
SARSAT 13 (METOP-B)     
1 38771U 12049A   26062.10984919  .00000134  00000+0  81125-4 0  9997
2 38771  98.6655 115.6570 0001240 302.2211  57.8846 14.21442069698194
GPS BIIF-3              
1 38833U 12053A   26060.62550247 -.00000018  00000+0  00000+0 0  9999
2 38833  53.5656 148.0073 0176910  64.7623 297.0865  2.00565726 97288
GSAT0103 (GALILEO-FM3)  
1 38857U 12055A   26061.13039064  .00000014  00000+0  00000+0 0  9998
2 38857  55.7369 104.4827 0005349 284.8926  75.1340  1.70473355 83189
